NEONSAT-1               
1 59587U 24077A   24124.73618381  .00008076  00000+0  42128-3 0  9994
2 59587  97.4130 205.2818 0014701 240.2435 119.7336 15.16114790  1487
